OBJECT_NAME,OBJECT_ID,EPOCH,MEAN_MOTION,ECCENTRICITY,INCLINATION,RA_OF_ASC_NODE,ARG_OF_PERICENTER,MEAN_ANOMALY,EPHEMERIS_TYPE,CLASSIFICATION_TYPE,NORAD_CAT_ID,ELEMENT_SET_NO,REV_AT_EPOCH,BSTAR,MEAN_MOTION_DOT,MEAN_MOTION_DDOT
2024-092H,2024-092H,2024-05-28T05:00:47.059200,14.31077812,0.0011266,98.6066,261.2886,253.0691,220.5571,0,U,59780,999,159,0.00015112,3.54e-06,0
2024-092J,2024-092J,2024-05-28T05:00:57.283776,14.31080527,0.0011361,98.6056,261.2883,252.8147,221.5246,0,U,59781,999,159,0.00015855,3.74e-06,0
STARLINK-31363,2024-093A,2024-06-01T14:00:01.000224,15.83782744,0.0001723,42.9996,290.6749,270.2758,22.2626,0,U,59782,999,350,-0.0052342,-0.01061293,0
STARLINK-31868,2024-093B,2024-06-01T14:00:01.000224,15.77758659,0.0001733,43.001,291.494,281.8517,45.9444,0,U,59783,999,349,-0.0046367,-0.00737847,0
STARLINK-31848,2024-093C,2024-06-01T14:00:01.000224,15.77748461,0.0001706,43.0009,291.4886,279.9476,50.0698,0,U,59784,999,351,-0.0046728,-0.00742806,0
STARLINK-31890,2024-093D,2024-06-01T14:00:01.000224,15.77724949,0.0001674,43.0009,291.4827,279.1684,53.2193,0,U,59785,999,347,-0.0047194,-0.0074887,0
STARLINK-31862,2024-093E,2024-06-01T14:00:01.000224,15.77723503,0.0001595,43.0009,291.4717,283.9547,52.6127,0,U,59786,999,334,-0.0047588,-0.00754542,0
STARLINK-31870,2024-093F,2024-06-01T14:00:01.000224,15.77731264,0.000177,43.0009,291.4775,282.9497,51.4486,0,U,59787,999,344,-0.0047294,-0.0075055,0
STARLINK-31888,2024-093G,2024-06-01T14:00:01.000224,15.77681852,0.0001618,43.0008,291.46,267.8615,73.3764,0,U,59788,999,346,-0.0048681,-0.00769099,0
STARLINK-31863,2024-093H,2024-06-01T14:00:01.000224,15.77679295,0.0001718,43.0009,291.4653,275.0869,64.1085,0,U,59789,999,349,-0.0048453,-0.00765744,0
STARLINK-31873,2024-093J,2024-06-01T14:00:01.000224,15.77636394,0.0001526,43.0008,291.4535,265.5321,78.3145,0,U,59790,999,349,-0.0049409,-0.00778136,0
STARLINK-31865,2024-093K,2024-06-01T14:00:01.000224,15.77601042,0.0001508,43.0009,291.4474,284.6997,61.5878,0,U,59791,999,351,-0.0049821,-0.00782922,0
STARLINK-31893,2024-093L,2024-06-01T14:00:01.000224,15.77578244,0.0001859,43.0008,291.4417,278.7165,69.8742,0,U,59792,999,350,-0.0050115,-0.00786508,0
STARLINK-31901,2024-093M,2024-06-01T14:00:01.000224,15.77583975,0.0001776,43.0008,291.436,273.339,77.2801,0,U,59793,999,349,-0.0050454,-0.00791532,0
STARLINK-31823,2024-093N,2024-06-01T14:00:01.000224,15.77560137,0.0001511,43.0009,291.4302,267.5089,85.4426,0,U,59794,999,351,-0.0051008,-0.00798604,0
STARLINK-31916,2024-093P,2024-06-01T14:00:01.000224,15.77544413,0.0001466,43.0006,291.4247,268.7764,86.4059,0,U,59795,999,349,-0.0051392,-0.00803557,0
STARLINK-31915,2024-093Q,2024-06-01T16:02:25.022688,16.17408745,0.001069,42.9967,289.0641,315.482,167.6428,0,U,59796,999,352,0.0012476,0.01944602,0.0039723
STARLINK-31907,2024-093R,2024-06-01T14:00:01.000224,15.77521389,0.0001843,43.0005,291.4183,277.2949,80.1619,0,U,59797,999,344,-0.0051585,-0.00805659,0
STARLINK-31687,2024-093S,2024-06-01T14:00:01.000224,15.77276628,0.0001538,43.0006,291.3707,272.9222,103.2768,0,U,59798,999,349,-0.0055786,-0.00856382,0
STARLINK-31810,2024-093T,2024-06-01T14:00:01.000224,15.77381776,0.0001848,43.0006,291.3888,271.6219,97.4892,0,U,59799,999,349,-0.0054076,-0.00836207,0
STARLINK-31812,2024-093U,2024-06-01T14:00:01.000224,15.77391993,0.0002709,43.0004,291.4061,244.576,117.8253,0,U,59800,999,357,-0.0052863,-0.0081976,0
STARLINK-31815,2024-093V,2024-06-01T14:00:01.000224,15.77448957,0.0001851,43.0006,291.4013,277.4236,86.9365,0,U,59801,999,349,-0.0052924,-0.00822248,0
STARLINK-31814,2024-093W,2024-06-01T14:00:01.000224,15.77409235,0.0001788,43.0005,291.3953,281.86,84.9287,0,U,59802,999,349,-0.0053444,-0.00828227,0
STARLINK-31794,2024-093X,2024-06-01T14:00:01.000224,15.77305019,0.0001801,43.0006,291.377,280.3416,93.5493,0,U,59803,999,355,-0.005509,-0.00847753,0
STARLINK-31824,2024-093Y,2024-06-01T14:00:01.000224,15.77333367,0.0001816,43.0007,291.3834,279.2109,92.3815,0,U,59804,999,344,-0.0054612,-0.00842053,0
2024-094A,2024-094A,2024-06-01T14:04:59.184768,15.23102819,0.0008147,97.4724,224.4401,232.2711,127.7788,0,U,59805,999,189,0.00056221,0.00013213,0
2024-094B,2024-094B,2024-06-01T13:54:52.140096,15.24459166,0.0011018,97.4718,224.4487,239.6495,120.3654,0,U,59806,999,188,0.00056276,0.00013781,0
2024-094C,2024-094C,2024-06-01T13:57:33.579360,15.24228129,0.0011218,97.4733,224.4486,233.9943,126.0255,0,U,59807,999,188,0.00055776,0.00013565,0
2024-094D,2024-094D,2024-06-01T14:04:26.584320,15.22002823,0.0006953,97.4716,224.4398,276.8837,83.1608,0,U,59808,999,188,0.00054723,0.00012444,0
2024-092K,2024-092K,2024-05-30T15:21:45.296640,15.07834872,0.0012287,97.5974,263.6666,228.2602,257.1957,0,U,59809,999,154,0.00055961,8.526e-05,0
