2024-092H               
1 59780U 24092H   24149.20887800  .00000354  00000+0  15112-3 0  9993
2 59780  98.6066 261.2886 0011266 253.0691 220.5571 14.31077812  1592
2024-092J               
1 59781U 24092J   24149.20899634  .00000374  00000+0  15855-3 0  9998
2 59781  98.6056 261.2883 0011361 252.8147 221.5246 14.31080527  1595
STARLINK-31363          
1 59782U 24093A   24153.58334491 -.01061293  00000+0 -52342-2 0  9992
2 59782  42.9996 290.6749 0001723 270.2758  22.2626 15.83782744  3500
STARLINK-31868          
1 59783U 24093B   24153.58334491 -.00737847  00000+0 -46367-2 0  9997
2 59783  43.0010 291.4940 0001733 281.8517  45.9444 15.77758659  3493
STARLINK-31848          
1 59784U 24093C   24153.58334491 -.00742806  00000+0 -46728-2 0  9990
2 59784  43.0009 291.4886 0001706 279.9476  50.0698 15.77748461  3514
STARLINK-31890          
1 59785U 24093D   24153.58334491 -.00748870  00000+0 -47194-2 0  9996
2 59785  43.0009 291.4827 0001674 279.1684  53.2193 15.77724949  3472
STARLINK-31862          
1 59786U 24093E   24153.58334491 -.00754542  00000+0 -47588-2 0  9997
2 59786  43.0009 291.4717 0001595 283.9547  52.6127 15.77723503  3345
STARLINK-31870          
1 59787U 24093F   24153.58334491 -.00750550  00000+0 -47294-2 0  9997
2 59787  43.0009 291.4775 0001770 282.9497  51.4486 15.77731264  3447
STARLINK-31888          
1 59788U 24093G   24153.58334491 -.00769099  00000+0 -48681-2 0  9997
2 59788  43.0008 291.4600 0001618 267.8615  73.3764 15.77681852  3460
STARLINK-31863          
1 59789U 24093H   24153.58334491 -.00765744  00000+0 -48453-2 0  9998
2 59789  43.0009 291.4653 0001718 275.0869  64.1085 15.77679295  3498
STARLINK-31873          
1 59790U 24093J   24153.58334491 -.00778136  00000+0 -49409-2 0  9991
2 59790  43.0008 291.4535 0001526 265.5321  78.3145 15.77636394  3499
STARLINK-31865          
1 59791U 24093K   24153.58334491 -.00782922  00000+0 -49821-2 0  9998
2 59791  43.0009 291.4474 0001508 284.6997  61.5878 15.77601042  3516
STARLINK-31893          
1 59792U 24093L   24153.58334491 -.00786508  00000+0 -50115-2 0  9991
2 59792  43.0008 291.4417 0001859 278.7165  69.8742 15.77578244  3500
STARLINK-31901          
1 59793U 24093M   24153.58334491 -.00791532  00000+0 -50454-2 0  9991
2 59793  43.0008 291.4360 0001776 273.3390  77.2801 15.77583975  3491
STARLINK-31823          
1 59794U 24093N   24153.58334491 -.00798604  00000+0 -51008-2 0  9995
2 59794  43.0009 291.4302 0001511 267.5089  85.4426 15.77560137  3518
STARLINK-31916          
1 59795U 24093P   24153.58334491 -.00803557  00000+0 -51392-2 0  9996
2 59795  43.0006 291.4247 0001466 268.7764  86.4059 15.77544413  3495
STARLINK-31915          
1 59796U 24093Q   24153.66834517  .01944602  39723-2  12476-2 0  9993
2 59796  42.9967 289.0641 0010690 315.4820 167.6428 16.17408745  3521
STARLINK-31907          
1 59797U 24093R   24153.58334491 -.00805659  00000+0 -51585-2 0  9997
2 59797  43.0005 291.4183 0001843 277.2949  80.1619 15.77521389  3449
STARLINK-31687          
1 59798U 24093S   24153.58334491 -.00856382  00000+0 -55786-2 0  9994
2 59798  43.0006 291.3707 0001538 272.9222 103.2768 15.77276628  3499
STARLINK-31810          
1 59799U 24093T   24153.58334491 -.00836207  00000+0 -54076-2 0  9990
2 59799  43.0006 291.3888 0001848 271.6219  97.4892 15.77381776  3499
STARLINK-31812          
1 59800U 24093U   24153.58334491 -.00819760  00000+0 -52863-2 0  9990
2 59800  43.0004 291.4061 0002709 244.5760 117.8253 15.77391993  3570
STARLINK-31815          
1 59801U 24093V   24153.58334491 -.00822248  00000+0 -52924-2 0  9994
2 59801  43.0006 291.4013 0001851 277.4236  86.9365 15.77448957  3494
STARLINK-31814          
1 59802U 24093W   24153.58334491 -.00828227  00000+0 -53444-2 0  9996
2 59802  43.0005 291.3953 0001788 281.8600  84.9287 15.77409235  3496
STARLINK-31794          
1 59803U 24093X   24153.58334491 -.00847753  00000+0 -55090-2 0  9991
2 59803  43.0006 291.3770 0001801 280.3416  93.5493 15.77305019  3557
STARLINK-31824          
1 59804U 24093Y   24153.58334491 -.00842053  00000+0 -54612-2 0  9999
2 59804  43.0007 291.3834 0001816 279.2109  92.3815 15.77333367  3442
2024-094A               
1 59805U 24094A   24153.58679612  .00013213  00000+0  56221-3 0  9993
2 59805  97.4724 224.4401 0008147 232.2711 127.7788 15.23102819  1897
2024-094B               
1 59806U 24094B   24153.57977014  .00013781  00000+0  56276-3 0  9990
2 59806  97.4718 224.4487 0011018 239.6495 120.3654 15.24459166  1887
2024-094C               
1 59807U 24094C   24153.58163865  .00013565  00000+0  55776-3 0  9997
2 59807  97.4733 224.4486 0011218 233.9943 126.0255 15.24228129  1884
2024-094D               
1 59808U 24094D   24153.58641880  .00012444  00000+0  54723-3 0  9992
2 59808  97.4716 224.4398 0006953 276.8837  83.1608 15.22002823  1880
2024-092K               
1 59809U 24092K   24151.64010760  .00008526  00000+0  55961-3 0  9994
2 59809  97.5974 263.6666 0012287 228.2602 257.1957 15.07834872  1542
